2024-043P               
1 59111U 24043P   24086.87531156  .00019158  00000+0  98408-3 0  9991
2 59111  97.4645 211.8055 0015529 222.3317 137.6718 15.16431350  3328
SONATE 2                
1 59112U 24043Q   24086.94118433  .00014767  00000+0  76285-3 0  9999
2 59112  97.4665 211.8758 0015310 217.9431 142.0725 15.16291111  3334
2024-043R               
1 59113U 24043R   24086.87318398  .00019365  00000+0  99058-3 0  9996
2 59113  97.4644 211.8081 0014964 221.1650 138.8456 15.16581864  3325
2024-043S               
1 59114U 24043S   24086.87346617  .00010269  00000+0  53034-3 0  9990
2 59114  97.4688 211.8184 0015597 215.6880 144.3311 15.16386255  3323
2024-043T               
1 59115U 24043T   24086.93469931  .00029449  00000+0  14777-2 0  9993
2 59115  97.4616 211.8724 0014590 223.6300 136.3780 15.17173986  3331
2024-043U               
1 59116U 24043U   24086.93064944  .00036076  00000+0  17862-2 0  9991
2 59116  97.4577 211.8684 0013637 225.8388 134.1725 15.17608199  3338
2024-043V               
1 59117U 24043V   24086.87002336  .00010247  00000+0  52607-3 0  9991
2 59117  97.4691 211.8236 0014807 211.4751 148.5598 15.16607943  3325
2024-043W               
1 59118U 24043W   24086.93253745  .00025175  00000+0  12645-2 0  9994
2 59118  97.4646 211.8836 0013696 219.0085 141.0162 15.17183179  3338
2024-043X               
1 59119U 24043X   24086.93233625  .00025359  00000+0  12742-2 0  9992
2 59119  97.4605 211.8717 0012712 220.5166 139.5122 15.17180440  3333
2024-043Y               
1 59120U 24043Y   24086.93357742  .00018010  00000+0  91252-3 0  9991
2 59120  97.4666 211.8878 0013756 216.3814 143.6485 15.16947788  3335
LYNK TOWER 5            
1 59121U 24043Z   24086.86906034  .00006535  00000+0  33733-3 0  9997
2 59121  97.4644 211.8137 0013561 212.9411 147.0978 15.16579849  3322
NUSAT-44 (MARIA MITCHE*)
1 59122U 24043AA  24087.52689659  .00011892  00000+0  60523-3 0  9992
2 59122  97.4658 212.4696 0013763 211.0820 148.9600 15.16889106  3426
LYNK TOWER 6            
1 59123U 24043AB  24086.93456535  .00006091  00000+0  31437-3 0  9999
2 59123  97.4618 211.8723 0013081 213.4025 146.6384 15.16619769  3333
2024-043AC              
1 59124U 24043AC  24086.93237651  .00006356  00000+0  32635-3 0  9991
2 59124  97.4619 211.8752 0012514 211.7081 148.3400 15.16787805  3335
2024-043AD              
1 59125U 24043AD  24086.93177138  .00010670  00000+0  54325-3 0  9999
2 59125  97.4659 211.8883 0013090 211.3608 148.6845 15.16909536  3339
2024-043AE              
1 59126U 24043AE  24086.93171658  .00009907  00000+0  50505-3 0  9998
2 59126  97.4611 211.8732 0012017 210.9644 149.0882 15.16899172  3334
2024-043AF              
1 59127U 24043AF  24087.59016797  .00011182  00000+0  56735-3 0  9993
2 59127  97.4625 212.5279 0012010 207.7267 152.3327 15.17031633  3435
2024-043AG              
1 59128U 24043AG  24087.59099941  .00006694  00000+0  34258-3 0  9994
2 59128  97.4649 212.5363 0012711 207.3656 152.6909 15.16881211  3435
2024-043AH              
1 59129U 24043AH  24086.92924902  .00014018  00000+0  70743-3 0  9993
2 59129  97.4617 211.8782 0012111 209.3293 150.7262 15.17164237  3334
GHOST-5                 
1 59130U 24043AJ  24086.92921729  .00011964  00000+0  60536-3 0  9995
2 59130  97.4628 211.8810 0012163 207.5339 152.5252 15.17109002  3336
2024-043AK              
1 59131U 24043AK  24087.58955578  .00006314  00000+0  32252-3 0  9995
2 59131  97.4647 212.5380 0012880 205.6394 154.4202 15.16971605  3436
LIZZIESAT               
1 59132U 24043AL  24087.58895233  .00005380  00000+0  27528-3 0  9999
2 59132  97.4628 212.5291 0012671 202.2749 157.7935 15.16982717  3437
GHOST-4                 
1 59133U 24043AM  24086.86159738  .00011770  00000+0  59356-3 0  9997
2 59133  97.4645 211.8256 0012921 207.8878 152.1664 15.17223321  3328
2024-043AN              
1 59134U 24043AN  24086.92649247  .00012150  00000+0  61126-3 0  9995
2 59134  97.4622 211.8829 0012552 204.9838 155.0789 15.17300956  3335
2024-043AP              
1 59135U 24043AP  24087.58628887  .00005736  00000+0  29158-3 0  9997
2 59135  97.4649 212.5418 0013146 200.7703 159.2998 15.17175770  3435
2024-043AQ              
1 59136U 24043AQ  24087.58577450  .00005808  00000+0  29498-3 0  9994
2 59136  97.4625 212.5342 0013044 200.0026 160.0697 15.17206118  3431
2024-043AR              
1 59137U 24043AR  24086.92591137  .00006716  00000+0  34039-3 0  9996
2 59137  97.4627 211.8861 0012646 201.6367 158.4334 15.17222146  3331
2024-043AS              
1 59138U 24043AS  24086.91789313  .00037603  00000+0  18168-2 0  9994
2 59138  97.4570 211.8843 0010594 214.3064 145.7487 15.18484494  3339
2024-043AT              
1 59139U 24043AT  24086.91779920  .00036347  00000+0  17572-2 0  9990
2 59139  97.4572 211.8850 0010553 213.5376 146.5191 15.18470988  3325
2024-043AU              
1 59140U 24043AU  24087.57953981  .00014628  00000+0  72415-3 0  9992
2 59140  97.4598 212.5345 0011982 196.4763 163.6083 15.17828093  3422
2024-043AV              
1 59141U 24043AV  24086.91874869  .00018447  00000+0  90777-3 0  9991
2 59141  97.4608 211.8913 0011470 199.2334 160.8468 15.17992210  3323
2024-043AW              
1 59142U 24043AW  24086.91922086  .00016130  00000+0  79642-3 0  9992
2 59142  97.4646 211.9008 0012082 197.7156 162.3658 15.17896563  3329
2024-043AX              
1 59143U 24043AX  24086.91610924  .00026955  00000+0  13084-2 0  9991
2 59143  97.4704 211.9190 0012007 198.9952 161.0835 15.18383517  3325
2024-043AY              
1 59144U 24043AY  24086.91310300  .00038529  00000+0  18427-2 0  9993
2 59144  97.4656 211.9120 0011172 202.9786 157.0950 15.18827247  3324
MH-1                    
1 59145U 24043AZ  24087.57290774  .00030656  00000+0  14796-2 0  9997
2 59145  97.4681 212.5668 0011313 194.7346 165.3560 15.18560997  3420
2024-043BA              
1 59146U 24043BA  24086.91620791  .00013981  00000+0  68781-3 0  9997
2 59146  97.4587 211.8900 0010118 196.5507 163.5398 15.18075320  3327
2024-043BB              
1 59147U 24043BB  24087.17808973  .00015263  00000+0  74765-3 0  9991
2 59147  97.4606 212.1568 0010365 192.3691 167.7291 15.18204644  3361
HAMMER                  
1 59148U 24043BC  24087.57371926  .00009477  00000+0  46664-3 0  9996
2 59148  97.4665 212.5614 0011225 188.2563 171.8488 15.18137192  3425
STARLINK-31312          
1 59152U 24044A   24086.91667824 -.01787936  00000+0 -18579-1 0  9992
2 59152  43.0000 164.3131 0001113 280.4397 270.3608 15.66611010  4635
STARLINK-31308          
1 59153U 24044B   24087.51230615  .00004461  00000+0  86702-4 0  9992
2 59153  42.9988 163.3145 0001725 270.5757  89.4904 15.48903234  4755
STARLINK-31270          
1 59154U 24044C   24087.25001157 -.02166253  00000+0 -53173-1 0  9996
2 59154  42.9994 165.3571 0001112 310.5659 177.9009 15.43689056  4717
STARLINK-31341          
1 59155U 24044D   24087.25001157 -.02183894  00000+0 -83662-1 0  9993
2 59155  42.9993 165.6777 0001347 262.9458  92.7721 15.29454998  4641
STARLINK-31338          
1 59156U 24044E   24087.25001157 -.02184123  00000+0 -82128-1 0  9996
2 59156  42.9992 165.6519 0001377 268.0036  98.4026 15.30051841  4370
STARLINK-31334          
1 59157U 24044F   24087.25001157 -.02184761  00000+0 -80629-1 0  9999
2 59157  42.9993 165.6264 0001514 269.4626 107.3576 15.30649518  4488
STARLINK-31297          
1 59158U 24044G   24087.54896238 -.00940031  00000+0 -21736-1 0  9996
2 59158  42.9995 163.6063 0003882 280.1488  79.8932 15.44300219  4747
STARLINK-31182          
1 59159U 24044H   24087.25001157 -.02186984  00000+0 -77742-1 0  9992
2 59159  42.9993 165.5774 0001389 272.2147 124.6138 15.31844759  4701
STARLINK-31327          
1 59160U 24044J   24087.58334491 -.02141785  00000+0 -54002-1 0  9994
2 59160  42.9997 163.3937 0001021 280.5549 276.8164 15.42859398  4745
STARLINK-31256          
1 59161U 24044K   24087.25001157 -.02189819  00000+0 -74957-1 0  9990
2 59161  42.9991 165.5318 0001360 274.4223 141.3212 15.33040585  4698
STARLINK-31272          
1 59162U 24044L   24087.25001157 -.02193508  00000+0 -73678-1 0  9990
2 59162  42.9992 165.5092 0001244 274.1365 150.6540 15.33639811  4642
STARLINK-31278          
1 59163U 24044M   24087.25001157 -.02194097  00000+0 -72306-1 0  9992
2 59163  42.9992 165.4882 0001129 278.7038 154.8610 15.34237040  4641
STARLINK-31309          
1 59164U 24044N   24087.25001157 -.02194195  00000+0 -70934-1 0  9997
2 59164  42.9991 165.4671 0001180 282.6338 159.4323 15.34834095  4703
STARLINK-31325          
1 59165U 24044P   24087.25001157 -.02196021  00000+0 -69642-1 0  9992
2 59165  42.9992 165.4469 0001187 282.8946 167.3990 15.35432341  4453
STARLINK-31342          
1 59166U 24044Q   24087.58334491 -.02172122  00000+0 -71034-1 0  9993
2 59166  42.9992 163.5242 0001172 292.1795 210.5192 15.34440283  4753
STARLINK-31298          
1 59167U 24044R   24087.58334491 -.02053876  00000+0 -65279-1 0  9992
2 59167  42.9992 163.5033 0001756 255.2543 256.2044 15.35131261  4488
STARLINK-31322          
1 59168U 24044S   24087.58334491 -.02146806  00000+0 -50437-1 0  9999
2 59168  42.9995 163.3355 0001119 284.0465 296.5938 15.44927972  4754
STARLINK-31329          
1 59169U 24044T   24087.58334491 -.02106843  00000+0 -52276-1 0  9990
2 59169  42.9994 163.3450 0000828 289.9809 286.5837 15.43268092  4535
STARLINK-31340          
1 59170U 24044U   24087.25001157 -.02202394  00000+0 -63372-1 0  9993
2 59170  42.9995 165.3560 0001066 282.2660 205.0665 15.38421444  4540
STARLINK-31344          
1 59171U 24044V   24087.54355813 -.00757443  00000+0 -16666-1 0  9999
2 59171  42.9997 163.5599 0001968 240.6312 119.4350 15.45624763  4746
STARLINK-31348          
1 59172U 24044W   24086.91667824 -.00061016  00000+0 -11046-2 0  9990
2 59172  42.9998 166.7983 0000551 294.0022 337.2192 15.48946319  4457
STARLINK-31289          
1 59173U 24044X   24087.58334491 -.02175525  00000+0 -62103-1 0  9998
2 59173  42.9995 163.3956 0000999 278.5390 277.2212 15.38620973  4752
